HAIYANG 2A              
1 37781U 11043A   16092.41989569  .00000061  00000-0  10382-3 0  9998
2 37781  99.3418 104.3950 0001859  90.1418 269.9956 13.78712195233109
RASAT                   
1 37791U 11044D   16092.50604309  .00000118  00000-0  31289-4 0  9999
2 37791  98.1464 183.1120 0023390  71.9018 288.4731 14.64508856247126
MEGHA-TROPIQUES         
1 37838U 11058A   16091.85351360  .00000371  00000-0  60379-4 0  9992
2 37838  19.9778 295.4187 0009729 251.6738 108.2608 14.09666093230618
SRMSAT                  
1 37841U 11058D   16090.96096221  .00000345  00000-0  44488-4 0  9993
2 37841  19.9723 290.4361 0011895 252.7632 260.5825 14.10532505230539
YAOGAN 13               
1 37941U 11072A   16092.47965506  .00002373  00000-0  11973-3 0  9994
2 37941  97.4665  19.8115 0003087  89.2461  36.4391 15.18085338240651
PLEIADES 1A             
1 38012U 11076F   16092.48004230  .00000083  00000-0  27690-4 0  9997
2 38012  98.2043 167.7999 0001251  90.8336 269.3006 14.58540284228478
ZIYUAN 1-02C (ZY 1-02C) 
1 38038U 11079A   16092.54924062  .00000043  00000-0  29684-4 0  9990
2 38038  98.3950 163.5077 0001276  62.9369 297.1931 14.35430431224141
ZIYUAN 3 (ZY 3)         
1 38046U 12001A   16092.44886867  .00002126  00000-0  97767-4 0  9995
2 38046  97.3335 165.3943 0003194  75.7147 340.7297 15.21410430234790
RISAT 1                 
1 38248U 12017A   16092.39166912  .00000176  00000-0  15121-4 0  9999
2 38248  97.5633 100.1328 0006648 107.0544   5.3572 15.08942858216618
ARIRANG-3 (KOMPSAT-3)   
1 38338U 12025B   16092.46919619  .00000148  00000-0  39331-4 0  9994
2 38338  98.1569  30.5186 0008686 277.9543  82.0663 14.61389488206660
KANOPUS-V 1             
1 38707U 12039A   16092.41624624  .00001540  00000-0  75817-4 0  9999
2 38707  97.4589   9.8858 0001307  97.1045  37.9048 15.19485256204951
SPOT 6                  
1 38755U 12047A   16092.35980648  .00000076  00000-0  26106-4 0  9995
2 38755  98.1912 160.5294 0001160  70.7237 289.4090 14.58544855189538
PLEIADES 1B             
1 39019U 12068A   16092.37690475  .00000068  00000-0  24367-4 0  9998
2 39019  98.1676 167.7045 0001424  84.5652 275.5711 14.58582821177313
GOKTURK 2               
1 39030U 12073A   16092.43036810  .00000109  00000-0  28744-4 0  9990
2 39030  98.0423 346.8762 0015657  82.5593 277.7383 14.65656483175654
LANDSAT 8               
1 39084U 13008A   16091.78900242  .00000091  00000-0  30324-4 0  9991
2 39084  98.1938 162.5811 0002137  60.5337 299.6075 14.57113691166633
SARAL                   
1 39086U 13009A   16092.17374972  .00000013  00000-0  20995-4 0  9990
2 39086  98.5421 280.6420 0001151 131.1554 228.9729 14.32240091161842
GAOFEN 1                
1 39150U 13018A   16092.46574105  .00000161  00000-0  30503-4 0  9994
2 39150  97.9779 176.1038 0019631  42.8765 317.3974 14.76487536158061
VNREDSAT 1              
1 39160U 13021B   16092.49303904  .00000167  00000-0  41679-4 0  9991
2 39160  98.1207 170.1840 0001301  76.3720 283.7629 14.62983262155022
ARIRANG-5 (KOMPSAT-5)   
1 39227U 13042A   16092.51757249  .00000124  00000-0  13127-4 0  9996
2 39227  97.6045 278.4426 0001631 102.6901 315.0325 15.04524507143289
YAOGAN 18               
1 39363U 13059A   16092.43444444  .00001940  00000-0  98738-4 0  9994
2 39363  97.4397 163.6527 0001573 101.7360  79.7593 15.17992943134300
SKYSAT-1                
1 39418U 13066C   16092.30313677  .00000725  00000-0  66114-4 0  9995
2 39418  97.7272 174.2546 0020868 329.3858  30.6141 14.98073598128912
DUBAISAT-2              
1 39419U 13066D   16092.45979797  .00000668  00000-0  69187-4 0  9992
2 39419  97.7202 168.1628 0012845 303.8321  56.1659 14.93229771128577
GPM-CORE                
1 39574U 14009C   16092.15315877  .00006928  00000-0  10555-3 0  9991
2 39574  65.0132 342.9865 0010128 270.0889  89.9097 15.55304683118765
SENTINEL-1A             
1 39634U 14016A   16092.52147254 -.00000052  00000-0 -12252-5 0  9991
2 39634  98.1816 100.4568 0001398  86.1915 273.9446 14.59197957106284
KAZEOSAT 1              
1 39731U 14024A   16092.41556803  .00000051  00000-0  28865-4 0  9993
2 39731  98.4546 170.5231 0001122  84.6168 275.5148 14.41986877101222
ALOS-2                  
1 39766U 14029A   16092.47249935  .00000371  00000-0  56535-4 0  9997
2 39766  97.9186 190.1500 0001734  92.1134 268.0264 14.79477544100296
KAZEOSAT 2              
1 40010U 14033A   16092.51447987  .00000165  00000-0  27567-4 0  9992
2 40010  97.9304 353.3006 0015800 275.8774  84.0628 14.82058642 96523
HODOYOSHI-4             
1 40011U 14033B   16092.49413369  .00000322  00000-0  48747-4 0  9995
2 40011  97.9256 351.0712 0025640 266.2503  93.5783 14.80642059 96397
DEIMOS-2                
1 40013U 14033D   16092.55361639  .00000401  00000-0  53919-4 0  9991
2 40013  97.9156 354.5522 0001425  31.4024 328.7278 14.84580619 96670
HODOYOSHI-3             
1 40015U 14033F   16092.27330363  .00000278  00000-0  45510-4 0  9992
2 40015  97.9215 348.0266 0035839 266.3569  93.3543 14.78011947 96193
SPOT 7                  
1 40053U 14034A   16092.46174957 -.00000046  00000-0  00000+0 0  9995
2 40053  98.2060 160.3455 0001608  78.7003 281.4377 14.58560187 93484
SKYSAT-2                
1 40072U 14037D   16092.24284889  .00000223  00000-0  36359-4 0  9998
2 40072  98.3295 180.2855 0007287  37.7011 322.4706 14.80795583 93571
WORLDVIEW-3 (WV-3)      
1 40115U 14048A   16092.24947434  .00000249  00000-0  35452-4 0  9991
2 40115  97.9042 170.8690 0000865  64.1883 295.9422 14.85089745 88521
YAOGAN 21               
1 40143U 14053A   16092.49345791  .00002837  00000-0  11737-3 0  9997
2 40143  97.3534 168.5812 0011921 329.2481 149.8898 15.24716654 87091
YAOGAN 22               
1 40275U 14063A   16092.50838432 -.00000044  00000-0  00000+0 0  9991
2 40275 100.3708 208.1820 0005756   6.1808 353.9384 13.15307699 69572
ASNARO                  
1 40298U 14070A   16092.35107455  .00003696  00000-0  17737-3 0  9995
2 40298  97.4359 175.6324 0001361 101.1664 297.5634 15.19492507 77766
HODOYOSHI-1             
1 40299U 14070B   16092.50317784  .00001994  00000-0  92781-4 0  9993
2 40299  97.4316 175.3920 0013393 193.0180 281.2999 15.21045173 77771
CHUBUSAT-1              
1 40300U 14070C   16092.44367381  .00002139  00000-0  10343-3 0  9992
2 40300  97.4274 173.7778 0020710 202.0824 286.9177 15.19520744 77675
QSAT-EOS                
1 40301U 14070D   16092.45293601  .00004350  00000-0  20012-3 0  9998
2 40301  97.4224 173.0450 0029174 203.6136 278.6951 15.20485803 77640
TSUBAME                 
1 40302U 14070E   16092.49816711  .00002241  00000-0  12143-3 0  9999
2 40302  97.4185 169.7835 0040338 214.6125 241.9935 15.14950185 77447
YAOGAN 23               
1 40305U 14071A   16092.51498634  .00002401  00000-0  12157-3 0  9999
2 40305  97.3872  33.8502 0001651 120.0119  15.9713 15.17936527 76429
YAOGAN 24               
1 40310U 14072A   16092.38841592  .00000262  00000-0  44422-4 0  9990
2 40310  97.9561 211.4074 0018322  56.6272 303.6691 14.76946093 73502
CBERS-4                 
1 40336U 14079A   16092.49194788 -.00000253  00000-0 -73088-4 0  9997
2 40336  98.4946 168.8748 0000846  70.1327 289.9932 14.35444539 69041
RESURS P2               
1 40360U 14087A   16092.54841435  .00001833  00000-0  62109-4 0  9992
2 40360  97.2808 187.6621 0007168 139.5248  38.0314 15.31818401 70765
YAOGAN 26               
1 40362U 14088A   16092.42022493  .00003618  00000-0  14272-3 0  9997
2 40362  97.3904 170.9324 0002654  54.1532  74.6313 15.26188915 70368
SMAP                    
1 40376U 15003A   16092.47488995  .00000130  00000-0  34302-4 0  9991
2 40376  98.1246 100.6625 0001364  94.6810 265.4552 14.63378814 62297
KOMPSAT 3A              
1 40536U 15014A   16092.44880314  .00001857  00000-0  11102-3 0  9998
2 40536  97.5493  32.8153 0013189  77.6255  55.0186 15.12246977 56294
SENTINEL-2A             
1 40697U 15028A   16091.38230407  .00000019  00000-0  23892-4 0  9994
2 40697  98.5712 166.6932 0001121  92.1466 267.9865 14.30817541 40377
CARBONITE 1 (CBNT-1)    
1 40718U 15032D   16092.02830585  .00000312  00000-0  54566-4 0  9996
2 40718  98.0195 343.8979 0018063 115.1488 245.1597 14.74395952 39096
YAOGAN 27               
1 40878U 15040A   16092.50793620 -.00000045  00000-0  00000+0 0  9996
2 40878 100.4574 153.6668 0009241 136.3208 223.8642 13.15947079 28726
LAPAN-A2                
1 40931U 15052B   16092.20693536  .00000720  00000-0  11495-4 0  9995
2 40931   5.9979 143.9258 0012738 108.1174 252.0357 14.76443301 27537
YAOGAN 28               
1 41026U 15064A   16092.44092631  .00004222  00000-0  14651-3 0  9996
2 41026  97.2594 222.5216 0009847 103.8407 328.9405 15.30281227 22200
YAOGAN 29               
1 41038U 15069A   16092.54221080  .00000130  00000-0  23823-4 0  9993
2 41038  97.8541  76.9820 0001063 100.1383 259.9953 14.80289203 18749
JASON-3                 
1 41240U 16002A   16092.41295009  .00000169  00000-0  10000-2 0  9997
2 41240  66.0444 319.7145 0007963 268.6212  91.3894 12.80930168  9561
